start=new Date('2022-12-06T00:00:00.000Z').valueOf();
sats=[{"ECCENTRICITY":"0.00016610","NORAD_CAT_ID":"48359","MEAN_ELEMENT_THEORY":"SGP4","MEAN_MOTION_DOT":"0.00003322","CLASSIFICATION_TYPE":"U","CENTER_NAME":"EARTH","TLE_LINE2":"2 48359  53.0548 305.1236 0001661  55.5783 304.5363 15.06410200 87618","RA_OF_ASC_NODE":"305.1236","SEMIMAJOR_AXIS":"6925.317","MEAN_ANOMALY":"304.5363","ARG_OF_PERICENTER":"55.5783","MEAN_MOTION":"15.06410200","BSTAR":"0.00024176000000","OBJECT_ID":"2021-038G","PERIOD":"95.591","MEAN_MOTION_DDOT":"0.0000000000000","REF_FRAME":"TEME","PERIAPSIS":"546.032","OBJECT_NAME":"STARLINK-2628","GP_ID":"219595711","OBJECT_TYPE":"PAYLOAD","RCS_SIZE":"LARGE","LAUNCH_DATE":"2021-05-04","FILE":"3682099","SITE":"AFETR","ELEMENT_SET_NO":"999","TIME_SYSTEM":"UTC","INCLINATION":"53.0548","EPHEMERIS_TYPE":"0","DECAY_DATE":null,"APOAPSIS":"548.333","EPOCH":"2022-12-05T09:11:23.169120","COUNTRY_CODE":"US","TLE_LINE1":"1 48359U 21038G   22339.38290705  .00003322  00000-0  24176-3 0  9999","REV_AT_EPOCH":"8761"},{"CLASSIFICATION_TYPE":"U","CENTER_NAME":"EARTH","TLE_LINE2":"2 48360  53.0564 305.1398 0001626  64.9736 295.1422 15.06407121 87619","RA_OF_ASC_NODE":"305.1398","ECCENTRICITY":"0.00016260","MEAN_ELEMENT_THEORY":"SGP4","MEAN_MOTION_DOT":"0.00002707","NORAD_CAT_ID":"48360","OBJECT_ID":"2021-038H","MEAN_MOTION":"15.06407121","BSTAR":"0.00020050000000","REF_FRAME":"TEME","MEAN_MOTION_DDOT":"0.0000000000000","PERIAPSIS":"546.066","OBJECT_NAME":"STARLINK-2622","PERIOD":"95.592","SEMIMAJOR_AXIS":"6925.327","ARG_OF_PERICENTER":"64.9736","MEAN_ANOMALY":"295.1422","FILE":"3682099","TIME_SYSTEM":"UTC","SITE":"AFETR","ELEMENT_SET_NO":"999","OBJECT_TYPE":"PAYLOAD","GP_ID":"219594467","RCS_SIZE":"LARGE","LAUNCH_DATE":"2021-05-04","EPOCH":"2022-12-05T09:06:04.409280","REV_AT_EPOCH":"8761","TLE_LINE1":"1 48360U 21038H   22339.37921770  .00002707  00000-0  20050-3 0  9996","COUNTRY_CODE":"US","INCLINATION":"53.0564","EPHEMERIS_TYPE":"0","DECAY_DATE":null,"APOAPSIS":"548.318"},{"APOAPSIS":"548.150","INCLINATION":"53.0546","EPHEMERIS_TYPE":"0","DECAY_DATE":null,"COUNTRY_CODE":"US","TLE_LINE1":"1 48361U 21038J   22339.30918752  .00001198  00000-0  99274-4 0  9994","REV_AT_EPOCH":"8760","EPOCH":"2022-12-05T07:25:13.801728","RCS_SIZE":"LARGE","LAUNCH_DATE":"2021-05-04","GP_ID":"219594717","OBJECT_TYPE":"PAYLOAD","SITE":"AFETR","ELEMENT_SET_NO":"999","TIME_SYSTEM":"UTC","FILE":"3682099","MEAN_ANOMALY":"288.8294","ARG_OF_PERICENTER":"71.2843","SEMIMAJOR_AXIS":"6925.338","PERIOD":"95.592","REF_FRAME":"TEME","MEAN_MOTION_DDOT":"0.0000000000000","PERIAPSIS":"546.255","OBJECT_NAME":"STARLINK-2591","MEAN_MOTION":"15.06403560","BSTAR":"0.00009927400000","OBJECT_ID":"2021-038J","NORAD_CAT_ID":"48361","MEAN_MOTION_DOT":"0.00001198","MEAN_ELEMENT_THEORY":"SGP4","ECCENTRICITY":"0.00013680","TLE_LINE2":"2 48361  53.0546 305.4586 0001368  71.2843 288.8294 15.06403560 87603","RA_OF_ASC_NODE":"305.4586","CLASSIFICATION_TYPE":"U","CENTER_NAME":"EARTH"},{"GP_ID":"219626084","OBJECT_TYPE":"PAYLOAD","LAUNCH_DATE":"2021-05-04","RCS_SIZE":"LARGE","FILE":"3682465","ELEMENT_SET_NO":"999","SITE":"AFETR","TIME_SYSTEM":"UTC","DECAY_DATE":null,"INCLINATION":"53.0553","EPHEMERIS_TYPE":"0","APOAPSIS":"548.404","EPOCH":"2022-12-05T14:35:10.486464","REV_AT_EPOCH":"8765","TLE_LINE1":"1 48362U 21038K   22339.60776026  .00001729  00000-0  13492-3 0  9991","COUNTRY_CODE":"US","ECCENTRICITY":"0.00017260","NORAD_CAT_ID":"48362","MEAN_ELEMENT_THEORY":"SGP4","MEAN_MOTION_DOT":"0.00001729","CENTER_NAME":"EARTH","CLASSIFICATION_TYPE":"U","RA_OF_ASC_NODE":"304.1814","TLE_LINE2":"2 48362  53.0553 304.1814 0001726  60.6283 299.4878 15.06401500 87653","SEMIMAJOR_AXIS":"6925.344","MEAN_ANOMALY":"299.4878","ARG_OF_PERICENTER":"60.6283","BSTAR":"0.00013492000000","MEAN_MOTION":"15.06401500","OBJECT_ID":"2021-038K","PERIOD":"95.592","PERIAPSIS":"546.014","OBJECT_NAME":"STARLINK-2578","MEAN_MOTION_DDOT":"0.0000000000000","REF_FRAME":"TEME"},{"EPOCH":"2022-12-05T21:11:14.740800","REV_AT_EPOCH":"8776","TLE_LINE1":"1 48363U 21038L   22339.88280950  .00000774  00000-0  70819-4 0  9994","COUNTRY_CODE":"US","DECAY_DATE":null,"INCLINATION":"53.0552","EPHEMERIS_TYPE":"0","APOAPSIS":"548.243","FILE":"3682465","SITE":"AFETR","ELEMENT_SET_NO":"999","TIME_SYSTEM":"UTC","GP_ID":"219624838","OBJECT_TYPE":"PAYLOAD","LAUNCH_DATE":"2021-05-04","RCS_SIZE":"LARGE","BSTAR":"0.00007081900000","MEAN_MOTION":"15.06403624","OBJECT_ID":"2021-038L","PERIOD":"95.592","OBJECT_NAME":"STARLINK-2626","PERIAPSIS":"546.162","MEAN_MOTION_DDOT":"0.0000000000000","REF_FRAME":"TEME","SEMIMAJOR_AXIS":"6925.337","MEAN_ANOMALY":"284.2104","ARG_OF_PERICENTER":"75.9052","CENTER_NAME":"EARTH","CLASSIFICATION_TYPE":"U","RA_OF_ASC_NODE":"297.8816","TLE_LINE2":"2 48363  53.0552 297.8816 0001502  75.9052 284.2104 15.06403624 87763","ECCENTRICITY":"0.00015020","NORAD_CAT_ID":"48363","MEAN_ELEMENT_THEORY":"SGP4","MEAN_MOTION_DOT":"0.00000774"},{"OBJECT_TYPE":"PAYLOAD","GP_ID":"219593968","LAUNCH_DATE":"2021-05-04","RCS_SIZE":"LARGE","FILE":"3682099","TIME_SYSTEM":"UTC","ELEMENT_SET_NO":"999","SITE":"AFETR","DECAY_DATE":null,"INCLINATION":"53.0568","EPHEMERIS_TYPE":"0","APOAPSIS":"548.544","EPOCH":"2022-12-05T07:12:39.722400","REV_AT_EPOCH":"8767","TLE_LINE1":"1 48364U 21038M   22339.30045975  .00001635  00000-0  12861-3 0  9997","COUNTRY_CODE":"US","ECCENTRICITY":"0.00019340","MEAN_MOTION_DOT":"0.00001635","MEAN_ELEMENT_THEORY":"SGP4","NORAD_CAT_ID":"48364","CENTER_NAME":"EARTH","CLASSIFICATION_TYPE":"U","RA_OF_ASC_NODE":"300.6935","TLE_LINE2":"2 48364  53.0568 300.6935 0001934  53.9117 306.2051 15.06402792 87674","SEMIMAJOR_AXIS":"6925.340","ARG_OF_PERICENTER":"53.9117","MEAN_ANOMALY":"306.2051","OBJECT_ID":"2021-038M","BSTAR":"0.00012861000000","MEAN_MOTION":"15.06402792","OBJECT_NAME":"STARLINK-2611","PERIAPSIS":"545.866","MEAN_MOTION_DDOT":"0.0000000000000","REF_FRAME":"TEME","PERIOD":"95.592"},{"REF_FRAME":"TEME","MEAN_MOTION_DDOT":"0.0000000000000","OBJECT_NAME":"STARLINK-2608","PERIAPSIS":"546.164","PERIOD":"95.592","OBJECT_ID":"2021-038N","MEAN_MOTION":"15.06399531","BSTAR":"0.00015655000000","ARG_OF_PERICENTER":"72.0488","MEAN_ANOMALY":"288.0666","SEMIMAJOR_AXIS":"6925.350","TLE_LINE2":"2 48365  53.0538 297.9813 0001517  72.0488 288.0666 15.06399531 87760","RA_OF_ASC_NODE":"297.9813","CLASSIFICATION_TYPE":"U","CENTER_NAME":"EARTH","MEAN_MOTION_DOT":"0.00002051","MEAN_ELEMENT_THEORY":"SGP4","NORAD_CAT_ID":"48365","ECCENTRICITY":"0.00015170","REV_AT_EPOCH":"8776","TLE_LINE1":"1 48365U 21038N   22339.85701387  .00002051  00000-0  15655-3 0  9991","COUNTRY_CODE":"US","EPOCH":"2022-12-05T20:34:05.998368","APOAPSIS":"548.266","INCLINATION":"53.0538","EPHEMERIS_TYPE":"0","DECAY_DATE":null,"TIME_SYSTEM":"UTC","ELEMENT_SET_NO":"999","SITE":"AFETR","FILE":"3682465","RCS_SIZE":"LARGE","LAUNCH_DATE":"2021-05-04","OBJECT_TYPE":"PAYLOAD","GP_ID":"219626336"},{"RCS_SIZE":"MEDIUM","LAUNCH_DATE":"2021-05-04","GP_ID":"219626585","OBJECT_TYPE":"PAYLOAD","SITE":"AFETR","ELEMENT_SET_NO":"999","TIME_SYSTEM":"UTC","FILE":"3682465","APOAPSIS":"548.109","EPHEMERIS_TYPE":"0","INCLINATION":"53.0549","DECAY_DATE":null,"TLE_LINE1":"1 48366U 21038P   22339.57918530  .00001183  00000-0  98328-4 0  9995","REV_AT_EPOCH":"8778","COUNTRY_CODE":"US","EPOCH":"2022-12-05T13:54:01.609920","NORAD_CAT_ID":"48366","MEAN_MOTION_DOT":"0.00001183","MEAN_ELEMENT_THEORY":"SGP4","ECCENTRICITY":"0.00012670","TLE_LINE2":"2 48366  53.0549 294.2451 0001267  54.8973 305.2135 15.06394187 87787","RA_OF_ASC_NODE":"294.2451","CLASSIFICATION_TYPE":"U","CENTER_NAME":"EARTH","MEAN_ANOMALY":"305.2135","ARG_OF_PERICENTER":"54.8973","SEMIMAJOR_AXIS":"6925.366","PERIOD":"95.593","MEAN_MOTION_DDOT":"0.0000000000000","REF_FRAME":"TEME","PERIAPSIS":"546.354","OBJECT_NAME":"STARLINK-2631","MEAN_MOTION":"15.06394187","BSTAR":"0.00009832800000","OBJECT_ID":"2021-038P"},{"TLE_LINE2":"2 48367  53.0554 294.2564 0001760  69.2502 290.8676 15.06407634 88372","RA_OF_ASC_NODE":"294.2564","CLASSIFICATION_TYPE":"U","CENTER_NAME":"EARTH","NORAD_CAT_ID":"48367","MEAN_ELEMENT_THEORY":"SGP4","MEAN_MOTION_DOT":"-0.00000089","ECCENTRICITY":"0.00017600","PERIOD":"95.592","MEAN_MOTION_DDOT":"0.0000000000000","REF_FRAME":"TEME","PERIAPSIS":"545.971","OBJECT_NAME":"STARLINK-2643","MEAN_MOTION":"15.06407634","BSTAR":"0.00001293700000","OBJECT_ID":"2021-038Q","MEAN_ANOMALY":"290.8676","ARG_OF_PERICENTER":"69.2502","SEMIMAJOR_AXIS":"6925.325","ELEMENT_SET_NO":"999","SITE":"AFETR","TIME_SYSTEM":"UTC","FILE":"3682258","RCS_SIZE":"LARGE","LAUNCH_DATE":"2021-05-04","GP_ID":"219601448","OBJECT_TYPE":"PAYLOAD","COUNTRY_CODE":"US","TLE_LINE1":"1 48367U 21038Q   22339.57549425 -.00000089  00000-0  12937-4 0  9996","REV_AT_EPOCH":"8837","EPOCH":"2022-12-05T13:48:42.703200","APOAPSIS":"548.409","EPHEMERIS_TYPE":"0","INCLINATION":"53.0554","DECAY_DATE":null},{"DECAY_DATE":null,"INCLINATION":"53.0562","EPHEMERIS_TYPE":"0","APOAPSIS":"548.496","EPOCH":"2022-12-05T14:52:27.854976","COUNTRY_CODE":"US","TLE_LINE1":"1 48368U 21038R   22339.61976684  .00001879  00000-0  14503-3 0  9990","REV_AT_EPOCH":"8838","GP_ID":"219599385","OBJECT_TYPE":"PAYLOAD","LAUNCH_DATE":"2021-05-04","RCS_SIZE":"LARGE","FILE":"3682167","SITE":"AFETR","ELEMENT_SET_NO":"999","TIME_SYSTEM":"UTC","SEMIMAJOR_AXIS":"6925.348","MEAN_ANOMALY":"297.7042","ARG_OF_PERICENTER":"62.4134","BSTAR":"0.00014503000000","MEAN_MOTION":"15.06400204","OBJECT_ID":"2021-038R","PERIOD":"95.592","PERIAPSIS":"545.930","OBJECT_NAME":"STARLINK-2623","MEAN_MOTION_DDOT":"0.0000000000000","REF_FRAME":"TEME","ECCENTRICITY":"0.00018520","NORAD_CAT_ID":"48368","MEAN_ELEMENT_THEORY":"SGP4","MEAN_MOTION_DOT":"0.00001879","CENTER_NAME":"EARTH","CLASSIFICATION_TYPE":"U","RA_OF_ASC_NODE":"294.3376","TLE_LINE2":"2 48368  53.0562 294.3376 0001852  62.4134 297.7042 15.06400204 88382"}];
